{
 "generated_at": "2026-07-04T07:46:40Z",
 "sources": [
  {
   "name": "CelesTrak",
   "url": "https://celestrak.org/NORAD/elements/",
   "license": "frei verfügbar; Attribution. Ursprünglich USSPACECOM/Space-Track."
  },
  {
   "name": "GCAT (J. McDowell, planet4589.org)",
   "url": "https://planet4589.org/space/gcat/",
   "license": "CC-BY 4.0"
  }
 ],
 "satellites": [
  {
   "norad": 42987,
   "name": "SKYSAT-C11",
   "intl": "2017-068A",
   "group": "resource",
   "gcat": {
    "class": "B",
    "category": "IMG",
    "owner": "PLABST",
    "state": "US"
   },
   "omm": {
    "OBJECT_NAME": "SKYSAT-C11",
    "OBJECT_ID": "2017-068A",
    "EPOCH": "2026-07-02T20:30:15.068448",
    "MEAN_MOTION": 15.58726723,
    "ECCENTRICITY": 0.00005488,
    "INCLINATION": 97.4374,
    "RA_OF_ASC_NODE": 333.3766,
    "ARG_OF_PERICENTER": 157.1121,
    "MEAN_ANOMALY": 203.016,
    "EPHEMERIS_TYPE": 0,
    "CLASSIFICATION_TYPE": "U",
    "NORAD_CAT_ID": 42987,
    "ELEMENT_SET_NO": 999,
    "REV_AT_EPOCH": 48568,
    "BSTAR": 0.00043820325,
    "MEAN_MOTION_DOT": 0.00033708,
    "MEAN_MOTION_DDOT": 0
   }
  },
  {
   "norad": 41773,
   "name": "SKYSAT-C2",
   "intl": "2016-058D",
   "group": "resource",
   "gcat": {
    "class": "B",
    "category": "IMG",
    "owner": "TBELLA",
    "state": "US"
   },
   "omm": {
    "OBJECT_NAME": "SKYSAT-C2",
    "OBJECT_ID": "2016-058D",
    "EPOCH": "2026-07-02T12:10:05.068704",
    "MEAN_MOTION": 15.42422166,
    "ECCENTRICITY": 0.0003095,
    "INCLINATION": 97.0157,
    "RA_OF_ASC_NODE": 205.0276,
    "ARG_OF_PERICENTER": 35.1198,
    "MEAN_ANOMALY": 325.0254,
    "EPHEMERIS_TYPE": 0,
    "CLASSIFICATION_TYPE": "U",
    "NORAD_CAT_ID": 41773,
    "ELEMENT_SET_NO": 999,
    "REV_AT_EPOCH": 54741,
    "BSTAR": 0.00028849,
    "MEAN_MOTION_DOT": 0.00012396,
    "MEAN_MOTION_DDOT": 0
   }
  },
  {
   "norad": 41774,
   "name": "SKYSAT-C3",
   "intl": "2016-058E",
   "group": "resource",
   "gcat": {
    "class": "B",
    "category": "IMG",
    "owner": "TBELLA",
    "state": "US"
   },
   "omm": {
    "OBJECT_NAME": "SKYSAT-C3",
    "OBJECT_ID": "2016-058E",
    "EPOCH": "2026-07-02T19:15:22.269312",
    "MEAN_MOTION": 15.53216241,
    "ECCENTRICITY": 0.00015871,
    "INCLINATION": 96.8995,
    "RA_OF_ASC_NODE": 214.0541,
    "ARG_OF_PERICENTER": 132.8272,
    "MEAN_ANOMALY": 227.3116,
    "EPHEMERIS_TYPE": 0,
    "CLASSIFICATION_TYPE": "U",
    "NORAD_CAT_ID": 41774,
    "ELEMENT_SET_NO": 999,
    "REV_AT_EPOCH": 54853,
    "BSTAR": 0.00040941715,
    "MEAN_MOTION_DOT": 0.00025681,
    "MEAN_MOTION_DDOT": 0
   }
  },
  {
   "norad": 41771,
   "name": "SKYSAT-C4",
   "intl": "2016-058B",
   "group": "resource",
   "gcat": {
    "class": "B",
    "category": "IMG",
    "owner": "TBELLA",
    "state": "US"
   },
   "omm": {
    "OBJECT_NAME": "SKYSAT-C4",
    "OBJECT_ID": "2016-058B",
    "EPOCH": "2026-07-02T12:21:41.139936",
    "MEAN_MOTION": 15.49073522,
    "ECCENTRICITY": 0.0002682,
    "INCLINATION": 96.9163,
    "RA_OF_ASC_NODE": 204.6492,
    "ARG_OF_PERICENTER": 136.9395,
    "MEAN_ANOMALY": 223.2067,
    "EPHEMERIS_TYPE": 0,
    "CLASSIFICATION_TYPE": "U",
    "NORAD_CAT_ID": 41771,
    "ELEMENT_SET_NO": 999,
    "REV_AT_EPOCH": 54784,
    "BSTAR": 0.00031364,
    "MEAN_MOTION_DOT": 0.00016943,
    "MEAN_MOTION_DDOT": 0
   }
  },
  {
   "norad": 41772,
   "name": "SKYSAT-C5",
   "intl": "2016-058C",
   "group": "resource",
   "gcat": {
    "class": "B",
    "category": "IMG",
    "owner": "TBELLA",
    "state": "US"
   },
   "omm": {
    "OBJECT_NAME": "SKYSAT-C5",
    "OBJECT_ID": "2016-058C",
    "EPOCH": "2026-07-02T13:23:36.405600",
    "MEAN_MOTION": 15.34689761,
    "ECCENTRICITY": 0.0001929,
    "INCLINATION": 97.0457,
    "RA_OF_ASC_NODE": 223.5135,
    "ARG_OF_PERICENTER": 191.1565,
    "MEAN_ANOMALY": 168.9636,
    "EPHEMERIS_TYPE": 0,
    "CLASSIFICATION_TYPE": "U",
    "NORAD_CAT_ID": 41772,
    "ELEMENT_SET_NO": 999,
    "REV_AT_EPOCH": 54610,
    "BSTAR": 0.00024494,
    "MEAN_MOTION_DOT": 0.00008161,
    "MEAN_MOTION_DDOT": 0
   }
  },
  {
   "norad": 42992,
   "name": "SKYSAT-C6",
   "intl": "2017-068F",
   "group": "resource",
   "gcat": {
    "class": "B",
    "category": "IMG",
    "owner": "PLABST",
    "state": "US"
   },
   "omm": {
    "OBJECT_NAME": "SKYSAT-C6",
    "OBJECT_ID": "2017-068F",
    "EPOCH": "2026-07-02T19:12:39.735360",
    "MEAN_MOTION": 15.34234376,
    "ECCENTRICITY": 0.00052211,
    "INCLINATION": 97.4593,
    "RA_OF_ASC_NODE": 321.5616,
    "ARG_OF_PERICENTER": 108.7442,
    "MEAN_ANOMALY": 251.4368,
    "EPHEMERIS_TYPE": 0,
    "CLASSIFICATION_TYPE": "U",
    "NORAD_CAT_ID": 42992,
    "ELEMENT_SET_NO": 999,
    "REV_AT_EPOCH": 48471,
    "BSTAR": 0.00031310062,
    "MEAN_MOTION_DOT": 0.00010302,
    "MEAN_MOTION_DDOT": 0
   }
  },
  {
   "norad": 42991,
   "name": "SKYSAT-C7",
   "intl": "2017-068E",
   "group": "resource",
   "gcat": {
    "class": "B",
    "category": "IMG",
    "owner": "PLABST",
    "state": "US"
   },
   "omm": {
    "OBJECT_NAME": "SKYSAT-C7",
    "OBJECT_ID": "2017-068E",
    "EPOCH": "2026-07-02T19:35:27.021408",
    "MEAN_MOTION": 15.37235684,
    "ECCENTRICITY": 0.00067003,
    "INCLINATION": 97.4558,
    "RA_OF_ASC_NODE": 321.6696,
    "ARG_OF_PERICENTER": 60.6962,
    "MEAN_ANOMALY": 299.4951,
    "EPHEMERIS_TYPE": 0,
    "CLASSIFICATION_TYPE": "U",
    "NORAD_CAT_ID": 42991,
    "ELEMENT_SET_NO": 999,
    "REV_AT_EPOCH": 48477,
    "BSTAR": 0.00033187806,
    "MEAN_MOTION_DOT": 0.00012033,
    "MEAN_MOTION_DDOT": 0
   }
  },
  {
   "norad": 42990,
   "name": "SKYSAT-C8",
   "intl": "2017-068D",
   "group": "resource",
   "gcat": {
    "class": "B",
    "category": "IMG",
    "owner": "PLABST",
    "state": "US"
   },
   "omm": {
    "OBJECT_NAME": "SKYSAT-C8",
    "OBJECT_ID": "2017-068D",
    "EPOCH": "2026-07-02T19:43:56.530848",
    "MEAN_MOTION": 15.37283391,
    "ECCENTRICITY": 0.00012665,
    "INCLINATION": 97.4548,
    "RA_OF_ASC_NODE": 320.685,
    "ARG_OF_PERICENTER": 94.937,
    "MEAN_ANOMALY": 265.2019,
    "EPHEMERIS_TYPE": 0,
    "CLASSIFICATION_TYPE": "U",
    "NORAD_CAT_ID": 42990,
    "ELEMENT_SET_NO": 999,
    "REV_AT_EPOCH": 48471,
    "BSTAR": 0.00033619745,
    "MEAN_MOTION_DOT": 0.00012202,
    "MEAN_MOTION_DDOT": 0
   }
  },
  {
   "norad": 42989,
   "name": "SKYSAT-C9",
   "intl": "2017-068C",
   "group": "resource",
   "gcat": {
    "class": "B",
    "category": "IMG",
    "owner": "PLABST",
    "state": "US"
   },
   "omm": {
    "OBJECT_NAME": "SKYSAT-C9",
    "OBJECT_ID": "2017-068C",
    "EPOCH": "2026-07-02T19:34:51.253536",
    "MEAN_MOTION": 15.41951093,
    "ECCENTRICITY": 0.00093899,
    "INCLINATION": 97.445,
    "RA_OF_ASC_NODE": 321.9041,
    "ARG_OF_PERICENTER": 83.9821,
    "MEAN_ANOMALY": 276.2496,
    "EPHEMERIS_TYPE": 0,
    "CLASSIFICATION_TYPE": "U",
    "NORAD_CAT_ID": 42989,
    "ELEMENT_SET_NO": 999,
    "REV_AT_EPOCH": 48516,
    "BSTAR": 0.00035655953,
    "MEAN_MOTION_DOT": 0.00015119,
    "MEAN_MOTION_DDOT": 0
   }
  },
  {
   "norad": 40376,
   "name": "SMAP",
   "intl": "2015-003A",
   "group": "resource",
   "gcat": {
    "class": "C",
    "category": "EOSCI",
    "owner": "JPL",
    "state": "US"
   },
   "omm": {
    "OBJECT_NAME": "SMAP",
    "OBJECT_ID": "2015-003A",
    "EPOCH": "2026-07-02T19:21:11.602656",
    "MEAN_MOTION": 14.63380832,
    "ECCENTRICITY": 0.00014832,
    "INCLINATION": 98.1277,
    "RA_OF_ASC_NODE": 190.6796,
    "ARG_OF_PERICENTER": 97.6304,
    "MEAN_ANOMALY": 262.5066,
    "EPHEMERIS_TYPE": 0,
    "CLASSIFICATION_TYPE": "U",
    "NORAD_CAT_ID": 40376,
    "ELEMENT_SET_NO": 999,
    "REV_AT_EPOCH": 60990,
    "BSTAR": 0.00011126262,
    "MEAN_MOTION_DOT": 0.00000528,
    "MEAN_MOTION_DDOT": 0
   }
  }
 ]
}
