SMAP                    
1 40376U 15003A   26183.80638429  .00000528  00000+0  11126-3 0  9997
2 40376  98.1277 190.6796 0001483  97.6304 262.5066 14.63380832609908
SKYSAT-C4               
1 41771U 16058B   26183.51505949  .00016943  00000+0  31364-3 0  9990
2 41771  96.9163 204.6492 0002682 136.9395 223.2067 15.49073522547845
SKYSAT-C5               
1 41772U 16058C   26183.55806025  .00008161  00000+0  24494-3 0  9993
2 41772  97.0457 223.5135 0001929 191.1565 168.9636 15.34689761546100
SKYSAT-C2               
1 41773U 16058D   26183.50700311  .00012396  00000+0  28849-3 0  9993
2 41773  97.0157 205.0276 0003095  35.1198 325.0254 15.42422166547414
SKYSAT-C3               
1 41774U 16058E   26183.80234108  .00025681  00000+0  40942-3 0  9992
2 41774  96.8995 214.0541 0001587 132.8272 227.3116 15.53216241548531
SKYSAT-C11              
1 42987U 17068A   26183.85434107  .00033708  00000+0  43820-3 0  9994
2 42987  97.4374 333.3766 0000548 157.1121 203.0160 15.58726723485681
SKYSAT-C9               
1 42989U 17068C   26183.81587099  .00015119  00000+0  35656-3 0  9995
2 42989  97.4450 321.9041 0009389  83.9821 276.2496 15.41951093485161
SKYSAT-C8               
1 42990U 17068D   26183.82218207  .00012202  00000+0  33620-3 0  9999
2 42990  97.4548 320.6850 0001266  94.9370 265.2019 15.37283391484715
SKYSAT-C7               
1 42991U 17068E   26183.81628497  .00012033  00000+0  33188-3 0  9996
2 42991  97.4558 321.6696 0006700  60.6962 299.4951 15.37235684484773
SKYSAT-C6               
1 42992U 17068F   26183.80045990  .00010302  00000+0  31310-3 0  9999
2 42992  97.4593 321.5616 0005221 108.7442 251.4368 15.34234376484716
